XRISM                   
1 57800U 23137A   24069.91291105  .00005116  00000+0  39642-3 0  9994
2 57800  31.0027 283.8933 0010269 306.0807  53.8877 14.99864840 27687
